PERSEUS-M1              
1 40039U 14033AF  26179.40947669  .00001630  00000+0  15189-3 0  9993
2 40039  97.9650 123.7257 0009848 259.1346 100.8766 14.95669528652310
POLYITAN-1              
1 40042U 14033AJ  26179.60231800  .00017197  00000+0  53004-3 0  9995
2 40042  98.0939 206.9456 0008849 110.3963 249.8228 15.33653786655349
TIGRISAT                
1 40043U 14033AK  26179.36715251  .00001746  00000+0  20553-3 0  9992
2 40043  97.7843 329.1233 0050014  39.3467 321.1364 14.85200500647288
AEROCUBE 6A             
1 40045U 14033AM  26179.44466852  .00004133  00000+0  34822-3 0  9990
2 40045  97.7225 346.2752 0038066 338.7602  21.2039 14.98200302648305
AEROCUBE 6B             
1 40046U 14033AN  26179.43603378  .00004143  00000+0  33615-3 0  9996
2 40046  97.7221 346.0817 0037665 329.7663  30.1386 14.99664646648448
CANX-4                  
1 40055U 14034C   26179.63541137  .00000888  00000+0  12107-3 0  9998
2 40055  98.3108  55.3680 0012294 340.4137  19.6601 14.81284111646226
CANX-5                  
1 40056U 14034D   26179.63371117  .00000890  00000+0  12131-3 0  9998
2 40056  98.3110  55.4105 0012297 340.6401  19.4342 14.81301414637037
UKUBE-1                 
1 40074U 14037F   26179.53868023  .00007212  00000+0  40455-3 0  9992
2 40074  98.4235 184.0043 0003204 113.8590 246.2975 15.13723627650276
BRITE-PL2 (HEWELIUSZ)   
1 40119U 14049B   26179.55355389  .00001501  00000+0  14375-3 0  9990
2 40119  97.9109 291.6418 0015269  73.7044 286.5854 14.94634540643147
AEROCUBE 5C             
1 40965U 15058B   26179.50259990  .00001924  00000+0  17771-3 0  9998
2 40965  64.7660 227.3878 0131315  58.8513 302.5399 14.91497504367344
AEROCUBE 7              
1 40966U 15058C   26179.46655918  .00003072  00000+0  25106-3 0  9991
2 40966  64.7604 209.4848 0121041  57.2257 304.0451 14.95788328367644
FOX-1A (AO-85)          
1 40967U 15058D   26179.55386048  .00001884  00000+0  17662-3 0  9994
2 40967  64.7745 243.6587 0131145  52.1698 309.1198 14.91015179115266
SINOD-D 1               
1 40968U 15058E   26179.57685606  .00002906  00000+0  23787-3 0  9990
2 40968  64.7737 223.2432 0119813  48.5852 312.5483 14.95968824118367
SNAP-3 ALICE            
1 40970U 15058G   26179.63836699  .00139274  00000+0  14781-2 0  9992
2 40970  64.7503  64.2706 0024395   3.8545 356.2786 15.63030750118670
LMRST-SAT               
1 40971U 15058H   26179.57916380  .00001806  00000+0  17102-3 0  9992
2 40971  64.7752 239.9399 0132750  54.1822 307.1540 14.90632330115253
SNAP-3 EDDIE            
1 40972U 15058J   26179.36358905  .00133365  00000+0  13566-2 0  9998
2 40972  64.7419  55.8652 0025036   7.4770 352.6746 15.64106904120773
PROPCUBE 3              
1 40973U 15058K   26179.51982500  .00002595  00000+0  22101-3 0  9996
2 40973  64.7668 217.1270 0124700  55.4370 305.8436 14.94311944116490
BISONSAT                
1 40974U 15058L   26179.31124950  .00014474  00000+0  68986-3 0  9992
2 40974  64.7574 137.6715 0080319  42.8165 317.9176 15.16473165117301
SNAP-3 JIMI             
1 40975U 15058M   26178.37396855  .00006192  00000+0  42414-3 0  9999
2 40975  64.7629 187.5396 0106706  51.2733 309.7864 15.02391842115752
PROPCUBE 1 (FLORA)      
1 40976U 15058N   26179.61169923  .00001770  00000+0  17443-3 0  9993
2 40976  64.7747 259.8275 0131386  56.4705 304.8875 14.89266676117964
SINOD-D 3               
1 40977U 15058P   26179.55331684  .00002549  00000+0  22117-3 0  9991
2 40977  64.7716 240.3251 0119908  53.6219 307.5885 14.94075866116454
HORYU-4                 
1 41340U 16012D   26179.58501936  .01302903  11103-2  11194-2 0  9998
2 41340  30.9814 354.5243 0009577 338.1481  21.8776 16.12369922572647
RAVAN                   
1 41849U 16067B   26179.62530633  .00047364  00000+0  68459-3 0  9997
2 41849  97.9878  70.5268 0002298 348.3898  11.7302 15.55799430529477
CELTEE 1                
1 41850U 16067C   26179.59784693  .00004702  00000+0  22328-3 0  9996
2 41850  98.0661  46.9433 0001574 127.8171 232.3204 15.19789192527612
OPTICUBE 04             
1 41851U 16067D   26179.54570313  .00002593  00000+0  16483-3 0  9995
2 41851  98.0688  32.4218 0016957  80.4174 279.8969 15.09705927526886
AEROCUBE 8D             
1 41852U 16067E   26179.57660226  .00007170  00000+0  29440-3 0  9995
2 41852  98.0671  50.6147 0005039  96.4630 263.7179 15.24552278527809
AEROCUBE 8C             
1 41853U 16067F   26179.59971662  .00007129  00000+0  29050-3 0  9998
2 41853  98.0542  47.8522 0005898  37.3241 322.8403 15.24803516527808
CORVUS BC2              
1 42846U 17042X   26179.42126738  .00002391  00000+0  16617-3 0  9994
2 42846  97.4067 340.3351 0014528  75.9529 284.3312 15.06362534488755
CORVUS BC1              
1 42847U 17042Y   26179.41463844  .00002863  00000+0  19740-3 0  9990
2 42847  97.4094 341.1499 0012900  54.6269 305.6162 15.06525730488787
MAKERSAT 0              
1 43016U 17073D   26179.60833345  .00016135  00000+0  43423-3 0  9993
2 43016  97.4612  62.2183 0104830 231.6102 127.5690 15.32461094468214
