OBJECT_NAME,OBJECT_ID,EPOCH,MEAN_MOTION,ECCENTRICITY,INCLINATION,RA_OF_ASC_NODE,ARG_OF_PERICENTER,MEAN_ANOMALY,EPHEMERIS_TYPE,CLASSIFICATION_TYPE,NORAD_CAT_ID,ELEMENT_SET_NO,REV_AT_EPOCH,BSTAR,MEAN_MOTION_DOT,MEAN_MOTION_DDOT
PERSEUS-M1,2014-033AF,2026-06-28T09:49:38.786016,14.95669528,.00098484,97.9650,123.7257,259.1346,100.8766,0,U,40039,999,65231,.15189315E-3,.163E-4,0
POLYITAN-1,2014-033AJ,2026-06-28T14:27:20.275200,15.33653786,.00088492,98.0939,206.9456,110.3963,249.8228,0,U,40042,999,65534,.5300428E-3,.17197E-3,0
TIGRISAT,2014-033AK,2026-06-28T08:48:41.976864,14.85200500,.00500143,97.7843,329.1233,39.3467,321.1364,0,U,40043,999,64728,.20553488E-3,.1746E-4,0
AEROCUBE 6A,2014-033AM,2026-06-28T10:40:19.360128,14.98200302,.00380661,97.7225,346.2752,338.7602,21.2039,0,U,40045,999,64830,.34821538E-3,.4133E-4,0
AEROCUBE 6B,2014-033AN,2026-06-28T10:27:53.318592,14.99664646,.00376653,97.7221,346.0817,329.7663,30.1386,0,U,40046,999,64844,.3361539E-3,.4143E-4,0
CANX-4,2014-034C,2026-06-28T15:14:59.542368,14.81284111,.0012294,98.3108,55.3680,340.4137,19.6601,0,U,40055,999,64622,.12107099E-3,.888E-5,0
CANX-5,2014-034D,2026-06-28T15:12:32.645088,14.81301414,.00122971,98.3110,55.4105,340.6401,19.4342,0,U,40056,999,63703,.12131473E-3,.89E-5,0
UKUBE-1,2014-037F,2026-06-28T12:55:41.971872,15.13723627,.00032046,98.4235,184.0043,113.8590,246.2975,0,U,40074,999,65027,.40454934E-3,.7212E-4,0
BRITE-PL2 (HEWELIUSZ),2014-049B,2026-06-28T13:17:07.056096,14.94634540,.00152692,97.9109,291.6418,73.7044,286.5854,0,U,40119,999,64314,.14374532E-3,.1501E-4,0
AEROCUBE 5C,2015-058B,2026-06-28T12:03:44.631360,14.91497504,.01313158,64.7660,227.3878,58.8513,302.5399,0,U,40965,999,36734,.17770616E-3,.1924E-4,0
AEROCUBE 7,2015-058C,2026-06-28T11:11:50.713152,14.95788328,.01210417,64.7604,209.4848,57.2257,304.0451,0,U,40966,999,36764,.25106308E-3,.3072E-4,0
FOX-1A (AO-85),2015-058D,2026-06-28T13:17:33.545472,14.91015179,.01311451,64.7745,243.6587,52.1698,309.1198,0,U,40967,999,11526,.17661993E-3,.1884E-4,0
SINOD-D 1,2015-058E,2026-06-28T13:50:40.363584,14.95968824,.01198131,64.7737,223.2432,48.5852,312.5483,0,U,40968,999,11836,.23786569E-3,.2906E-4,0
SNAP-3 ALICE,2015-058G,2026-06-28T15:19:14.907936,15.63030750,.00243957,64.7503,64.2706,3.8545,356.2786,0,U,40970,999,11867,.1478091E-2,.139274E-2,0
LMRST-SAT,2015-058H,2026-06-28T13:53:59.752320,14.90632330,.01327507,64.7752,239.9399,54.1822,307.1540,0,U,40971,999,11525,.1710244E-3,.1806E-4,0
SNAP-3 EDDIE,2015-058J,2026-06-28T08:43:34.093920,15.64106904,.00250363,64.7419,55.8652,7.4770,352.6746,0,U,40972,999,12077,.13565858E-2,.133365E-2,0
PROPCUBE 3,2015-058K,2026-06-28T12:28:32.880000,14.94311944,.01247003,64.7668,217.1270,55.4370,305.8436,0,U,40973,999,11649,.22100519E-3,.2595E-4,0
BISONSAT,2015-058L,2026-06-28T07:28:11.956800,15.16473165,.00803193,64.7574,137.6715,42.8165,317.9176,0,U,40974,999,11730,.68986244E-3,.14474E-3,0
SNAP-3 JIMI,2015-058M,2026-06-27T08:58:30.882720,15.02391842,.0106706,64.7629,187.5396,51.2733,309.7864,0,U,40975,999,11575,.42413997E-3,.6192E-4,0
PROPCUBE 1 (FLORA),2015-058N,2026-06-28T14:40:50.813472,14.89266676,.01313867,64.7747,259.8275,56.4705,304.8875,0,U,40976,999,11796,.17442691E-3,.177E-4,0
SINOD-D 3,2015-058P,2026-06-28T13:16:46.574976,14.94075866,.01199088,64.7716,240.3251,53.6219,307.5885,0,U,40977,999,11645,.22117345E-3,.2549E-4,0
HORYU-4,2016-012D,2026-06-28T14:02:25.672704,16.12369922,.00095773,30.9814,354.5243,338.1481,21.8776,0,U,41340,999,57264,.11193622E-2,.1302903E-1,.11102531E-2
RAVAN,2016-067B,2026-06-28T15:00:26.466912,15.55799430,.00022982,97.9878,70.5268,348.3898,11.7302,0,U,41849,999,52947,.68459048E-3,.47364E-3,0
CELTEE 1,2016-067C,2026-06-28T14:20:53.974752,15.19789192,.00015749,98.0661,46.9433,127.8171,232.3204,0,U,41850,999,52761,.22328276E-3,.4702E-4,0
OPTICUBE 04,2016-067D,2026-06-28T13:05:48.750432,15.09705927,.00169571,98.0688,32.4218,80.4174,279.8969,0,U,41851,999,52688,.16482718E-3,.2593E-4,0
AEROCUBE 8D,2016-067E,2026-06-28T13:50:18.435264,15.24552278,.00050398,98.0671,50.6147,96.4630,263.7179,0,U,41852,999,52780,.29439665E-3,.717E-4,0
AEROCUBE 8C,2016-067F,2026-06-28T14:23:35.515968,15.24803516,.00058987,98.0542,47.8522,37.3241,322.8403,0,U,41853,999,52780,.29050432E-3,.7129E-4,0
CORVUS BC2,2017-042X,2026-06-28T10:06:37.501632,15.06362534,.00145285,97.4067,340.3351,75.9529,284.3312,0,U,42846,999,48875,.16617386E-3,.2391E-4,0
CORVUS BC1,2017-042Y,2026-06-28T09:57:04.761216,15.06525730,.00129001,97.4094,341.1499,54.6269,305.6162,0,U,42847,999,48878,.19740066E-3,.2863E-4,0
MAKERSAT 0,2017-073D,2026-06-28T14:36:00.010080,15.32461094,.01048301,97.4612,62.2183,231.6102,127.5690,0,U,43016,999,46821,.43423246E-3,.16135E-3,0
